CCSDS_OMM_VERS = 2.0
CREATION_DATE  = 
ORIGINATOR     = 

OBJECT_NAME    = 2026-027G
OBJECT_ID      = 2026-027G
CENTER_NAME    = EARTH
REF_FRAME      = TEME
TIME_SYSTEM    = UTC
MEAN_ELEMENT_THEORY = SGP/SGP4

EPOCH          = 2026-03-10T12:11:13.316928
MEAN_MOTION    = 15.12157366
ECCENTRICITY   = .0012082
INCLINATION    = 97.4907
RA_OF_ASC_NODE = 198.4843
ARG_OF_PERICENTER = 225.1714
MEAN_ANOMALY   = 134.8535

EPHEMERIS_TYPE = 0
CLASSIFICATION_TYPE = U
NORAD_CAT_ID   = 67752
ELEMENT_SET_NO = 999
REV_AT_EPOCH   = 398
BSTAR          = .56066E-3
MEAN_MOTION_DOT = .9626E-4
MEAN_MOTION_DDOT = 0

CCSDS_OMM_VERS = 2.0
CREATION_DATE  = 
ORIGINATOR     = 

OBJECT_NAME    = JIELONG-3 R/B
OBJECT_ID      = 2026-027H
CENTER_NAME    = EARTH
REF_FRAME      = TEME
TIME_SYSTEM    = UTC
MEAN_ELEMENT_THEORY = SGP/SGP4

EPOCH          = 2026-03-10T12:35:02.829984
MEAN_MOTION    = 15.76981802
ECCENTRICITY   = .0210203
INCLINATION    = 97.5116
RA_OF_ASC_NODE = 200.6217
ARG_OF_PERICENTER = 241.8144
MEAN_ANOMALY   = 116.1751

EPHEMERIS_TYPE = 0
CLASSIFICATION_TYPE = U
NORAD_CAT_ID   = 67753
ELEMENT_SET_NO = 999
REV_AT_EPOCH   = 411
BSTAR          = .7526E-3
MEAN_MOTION_DOT = .590106E-2
MEAN_MOTION_DDOT = .2366E-5

CCSDS_OMM_VERS = 2.0
CREATION_DATE  = 
ORIGINATOR     = 

OBJECT_NAME    = 2026-028A
OBJECT_ID      = 2026-028A
CENTER_NAME    = EARTH
REF_FRAME      = TEME
TIME_SYSTEM    = UTC
MEAN_ELEMENT_THEORY = SGP/SGP4

EPOCH          = 2026-03-10T07:36:57.410496
MEAN_MOTION    = 1.00243660
ECCENTRICITY   = .0005794
INCLINATION    = 0.4692
RA_OF_ASC_NODE = 290.3509
ARG_OF_PERICENTER = 45.8336
MEAN_ANOMALY   = 23.7680

EPHEMERIS_TYPE = 0
CLASSIFICATION_TYPE = U
NORAD_CAT_ID   = 67756
ELEMENT_SET_NO = 999
REV_AT_EPOCH   = 26
BSTAR          = 0
MEAN_MOTION_DOT = -.106E-5
MEAN_MOTION_DDOT = 0

CCSDS_OMM_VERS = 2.0
CREATION_DATE  = 
ORIGINATOR     = 

OBJECT_NAME    = JAM-E JAM 1
OBJECT_ID      = 2026-028B
CENTER_NAME    = EARTH
REF_FRAME      = TEME
TIME_SYSTEM    = UTC
MEAN_ELEMENT_THEORY = SGP/SGP4

EPOCH          = 2026-03-10T12:15:08.074368
MEAN_MOTION    = 1.00230242
ECCENTRICITY   = .0005698
INCLINATION    = 0.4911
RA_OF_ASC_NODE = 285.9817
ARG_OF_PERICENTER = 134.1977
MEAN_ANOMALY   = 326.0462

EPHEMERIS_TYPE = 0
CLASSIFICATION_TYPE = U
NORAD_CAT_ID   = 67757
ELEMENT_SET_NO = 999
REV_AT_EPOCH   = 13
BSTAR          = 0
MEAN_MOTION_DOT = .157E-5
MEAN_MOTION_DDOT = 0

CCSDS_OMM_VERS = 2.0
CREATION_DATE  = 
ORIGINATOR     = 

OBJECT_NAME    = KUIPER-00159
OBJECT_ID      = 2026-030A
CENTER_NAME    = EARTH
REF_FRAME      = TEME
TIME_SYSTEM    = UTC
MEAN_ELEMENT_THEORY = SGP/SGP4

EPOCH          = 2026-03-09T15:10:26.374944
MEAN_MOTION    = 15.35788737
ECCENTRICITY   = .0005012
INCLINATION    = 51.8841
RA_OF_ASC_NODE = 219.4438
ARG_OF_PERICENTER = 44.9181
MEAN_ANOMALY   = 315.2210

EPHEMERIS_TYPE = 0
CLASSIFICATION_TYPE = U
NORAD_CAT_ID   = 67764
ELEMENT_SET_NO = 999
REV_AT_EPOCH   = 508
BSTAR          = .76096E-3
MEAN_MOTION_DOT = .2662E-3
MEAN_MOTION_DDOT = 0

CCSDS_OMM_VERS = 2.0
CREATION_DATE  = 
ORIGINATOR     = 

OBJECT_NAME    = KUIPER-00160
OBJECT_ID      = 2026-030B
CENTER_NAME    = EARTH
REF_FRAME      = TEME
TIME_SYSTEM    = UTC
MEAN_ELEMENT_THEORY = SGP/SGP4

EPOCH          = 2026-03-09T18:20:16.137888
MEAN_MOTION    = 15.35623214
ECCENTRICITY   = .00052725
INCLINATION    = 51.8805
RA_OF_ASC_NODE = 218.8175
ARG_OF_PERICENTER = 54.1950
MEAN_ANOMALY   = 305.9525

EPHEMERIS_TYPE = 0
CLASSIFICATION_TYPE = U
NORAD_CAT_ID   = 67765
ELEMENT_SET_NO = 999
REV_AT_EPOCH   = 510
BSTAR          = .10485695E-2
MEAN_MOTION_DOT = .36682E-3
MEAN_MOTION_DDOT = 0

CCSDS_OMM_VERS = 2.0
CREATION_DATE  = 
ORIGINATOR     = 

OBJECT_NAME    = KUIPER-00177
OBJECT_ID      = 2026-030C
CENTER_NAME    = EARTH
REF_FRAME      = TEME
TIME_SYSTEM    = UTC
MEAN_ELEMENT_THEORY = SGP/SGP4

EPOCH          = 2026-03-10T12:00:01.999296
MEAN_MOTION    = 15.33773284
ECCENTRICITY   = .0001807
INCLINATION    = 51.8845
RA_OF_ASC_NODE = 215.1042
ARG_OF_PERICENTER = 20.5021
MEAN_ANOMALY   = 168.9879

EPHEMERIS_TYPE = 0
CLASSIFICATION_TYPE = U
NORAD_CAT_ID   = 67766
ELEMENT_SET_NO = 999
REV_AT_EPOCH   = 511
BSTAR          = -.35626E-1
MEAN_MOTION_DOT = -.108262E-1
MEAN_MOTION_DDOT = 0

CCSDS_OMM_VERS = 2.0
CREATION_DATE  = 
ORIGINATOR     = 

OBJECT_NAME    = KUIPER-00178
OBJECT_ID      = 2026-030D
CENTER_NAME    = EARTH
REF_FRAME      = TEME
TIME_SYSTEM    = UTC
MEAN_ELEMENT_THEORY = SGP/SGP4

EPOCH          = 2026-03-10T10:00:03.458016
MEAN_MOTION    = 15.35625869
ECCENTRICITY   = .000639
INCLINATION    = 51.8826
RA_OF_ASC_NODE = 215.6972
ARG_OF_PERICENTER = 47.1307
MEAN_ANOMALY   = 313.0215

EPHEMERIS_TYPE = 0
CLASSIFICATION_TYPE = U
NORAD_CAT_ID   = 67767
ELEMENT_SET_NO = 999
REV_AT_EPOCH   = 520
BSTAR          = .12052E-2
MEAN_MOTION_DOT = .42261E-3
MEAN_MOTION_DDOT = 0

CCSDS_OMM_VERS = 2.0
CREATION_DATE  = 
ORIGINATOR     = 

OBJECT_NAME    = KUIPER-00180
OBJECT_ID      = 2026-030E
CENTER_NAME    = EARTH
REF_FRAME      = TEME
TIME_SYSTEM    = UTC
MEAN_ELEMENT_THEORY = SGP/SGP4

EPOCH          = 2026-03-10T12:00:01.999296
MEAN_MOTION    = 15.30800808
ECCENTRICITY   = .0014525
INCLINATION    = 51.8821
RA_OF_ASC_NODE = 215.7709
ARG_OF_PERICENTER = 70.8666
MEAN_ANOMALY   = 152.4450

EPHEMERIS_TYPE = 0
CLASSIFICATION_TYPE = U
NORAD_CAT_ID   = 67768
ELEMENT_SET_NO = 999
REV_AT_EPOCH   = 193
BSTAR          = -.59125E-2
MEAN_MOTION_DOT = -.175486E-2
MEAN_MOTION_DDOT = 0

CCSDS_OMM_VERS = 2.0
CREATION_DATE  = 
ORIGINATOR     = 

OBJECT_NAME    = KUIPER-00197
OBJECT_ID      = 2026-030F
CENTER_NAME    = EARTH
REF_FRAME      = TEME
TIME_SYSTEM    = UTC
MEAN_ELEMENT_THEORY = SGP/SGP4

EPOCH          = 2026-03-10T09:39:11.230848
MEAN_MOTION    = 15.36440627
ECCENTRICITY   = .0001605
INCLINATION    = 51.8832
RA_OF_ASC_NODE = 215.6043
ARG_OF_PERICENTER = 64.9739
MEAN_ANOMALY   = 295.1414

EPHEMERIS_TYPE = 0
CLASSIFICATION_TYPE = U
NORAD_CAT_ID   = 67769
ELEMENT_SET_NO = 999
REV_AT_EPOCH   = 520
BSTAR          = .13147E-2
MEAN_MOTION_DOT = .47373E-3
MEAN_MOTION_DDOT = 0

CCSDS_OMM_VERS = 2.0
CREATION_DATE  = 
ORIGINATOR     = 

OBJECT_NAME    = KUIPER-00198
OBJECT_ID      = 2026-030G
CENTER_NAME    = EARTH
REF_FRAME      = TEME
TIME_SYSTEM    = UTC
MEAN_ELEMENT_THEORY = SGP/SGP4

EPOCH          = 2026-03-09T15:03:31.007808
MEAN_MOTION    = 15.36089150
ECCENTRICITY   = .0003583
INCLINATION    = 51.8806
RA_OF_ASC_NODE = 219.4038
ARG_OF_PERICENTER = 35.8948
MEAN_ANOMALY   = 324.2279

EPHEMERIS_TYPE = 0
CLASSIFICATION_TYPE = U
NORAD_CAT_ID   = 67770
ELEMENT_SET_NO = 999
REV_AT_EPOCH   = 508
BSTAR          = .95567E-3
MEAN_MOTION_DOT = .33885E-3
MEAN_MOTION_DDOT = 0

CCSDS_OMM_VERS = 2.0
CREATION_DATE  = 
ORIGINATOR     = 

OBJECT_NAME    = KUIPER-00199
OBJECT_ID      = 2026-030H
CENTER_NAME    = EARTH
REF_FRAME      = TEME
TIME_SYSTEM    = UTC
MEAN_ELEMENT_THEORY = SGP/SGP4

EPOCH          = 2026-03-10T10:26:59.797248
MEAN_MOTION    = 15.34437074
ECCENTRICITY   = .001061
INCLINATION    = 51.8808
RA_OF_ASC_NODE = 215.8109
ARG_OF_PERICENTER = 63.6402
MEAN_ANOMALY   = 296.5671

EPHEMERIS_TYPE = 0
CLASSIFICATION_TYPE = U
NORAD_CAT_ID   = 67771
ELEMENT_SET_NO = 999
REV_AT_EPOCH   = 520
BSTAR          = .10679E-2
MEAN_MOTION_DOT = .36011E-3
MEAN_MOTION_DDOT = 0

CCSDS_OMM_VERS = 2.0
CREATION_DATE  = 
ORIGINATOR     = 

OBJECT_NAME    = KUIPER-00200
OBJECT_ID      = 2026-030J
CENTER_NAME    = EARTH
REF_FRAME      = TEME
TIME_SYSTEM    = UTC
MEAN_ELEMENT_THEORY = SGP/SGP4

EPOCH          = 2026-03-10T09:23:57.024672
MEAN_MOTION    = 15.37173770
ECCENTRICITY   = .0001398
INCLINATION    = 51.8819
RA_OF_ASC_NODE = 215.5314
ARG_OF_PERICENTER = 273.0013
MEAN_ANOMALY   = 87.0814

EPHEMERIS_TYPE = 0
CLASSIFICATION_TYPE = U
NORAD_CAT_ID   = 67772
ELEMENT_SET_NO = 999
REV_AT_EPOCH   = 520
BSTAR          = .13961E-2
MEAN_MOTION_DOT = .5157E-3
MEAN_MOTION_DDOT = 0

CCSDS_OMM_VERS = 2.0
CREATION_DATE  = 
ORIGINATOR     = 

OBJECT_NAME    = KUIPER-00203
OBJECT_ID      = 2026-030K
CENTER_NAME    = EARTH
REF_FRAME      = TEME
TIME_SYSTEM    = UTC
MEAN_ELEMENT_THEORY = SGP/SGP4

EPOCH          = 2026-03-10T12:00:01.999296
MEAN_MOTION    = 15.10444407
ECCENTRICITY   = .0011607
INCLINATION    = 51.8884
RA_OF_ASC_NODE = 216.3399
ARG_OF_PERICENTER = 63.9230
MEAN_ANOMALY   = 194.9524

EPHEMERIS_TYPE = 0
CLASSIFICATION_TYPE = U
NORAD_CAT_ID   = 67773
ELEMENT_SET_NO = 999
REV_AT_EPOCH   = 377
BSTAR          = -.34837E-1
MEAN_MOTION_DOT = -.545564E-2
MEAN_MOTION_DDOT = 0

CCSDS_OMM_VERS = 2.0
CREATION_DATE  = 
ORIGINATOR     = 

OBJECT_NAME    = KUIPER-00205
OBJECT_ID      = 2026-030L
CENTER_NAME    = EARTH
REF_FRAME      = TEME
TIME_SYSTEM    = UTC
MEAN_ELEMENT_THEORY = SGP/SGP4

EPOCH          = 2026-03-10T09:40:09.100704
MEAN_MOTION    = 15.36528537
ECCENTRICITY   = .0003177
INCLINATION    = 51.8813
RA_OF_ASC_NODE = 215.6037
ARG_OF_PERICENTER = 44.0475
MEAN_ANOMALY   = 316.0764

EPHEMERIS_TYPE = 0
CLASSIFICATION_TYPE = U
NORAD_CAT_ID   = 67774
ELEMENT_SET_NO = 999
REV_AT_EPOCH   = 520
BSTAR          = .23954E-2
MEAN_MOTION_DOT = .87351E-3
MEAN_MOTION_DDOT = 0

